start=new Date('2023-06-17T00:00:00.000Z').valueOf();
sats=[{"OBJECT_ID":"2022-097AX","RA_OF_ASC_NODE":"260.0353","COUNTRY_CODE":"US","CLASSIFICATION_TYPE":"U","EPHEMERIS_TYPE":"0","EPOCH":"2023-06-16T15:25:46.522848","MEAN_MOTION":"15.08859146","OBJECT_TYPE":"PAYLOAD","INCLINATION":"53.2161","BSTAR":"0.00049008000000","PERIOD":"95.436","TLE_LINE1":"1 53433U 22097AX  23167.64289957  .00007524  00000-0  49008-3 0  9999","SEMIMAJOR_AXIS":"6917.822","CENTER_NAME":"EARTH","ELEMENT_SET_NO":"999","MEAN_MOTION_DDOT":"0.0000000000000","SITE":"AFETR","DECAY_DATE":null,"GP_ID":"234096179","REF_FRAME":"TEME","NORAD_CAT_ID":"53433","FILE":"3934949","RCS_SIZE":"LARGE","MEAN_ELEMENT_THEORY":"SGP4","PERIAPSIS":"538.862","MEAN_ANOMALY":"266.2446","ECCENTRICITY":"0.00011920","LAUNCH_DATE":"2022-08-10","APOAPSIS":"540.511","MEAN_MOTION_DOT":"0.00007524","TLE_LINE2":"2 53433  53.2161 260.0353 0001192  93.8683 266.2446 15.08859146 48242","ARG_OF_PERICENTER":"93.8683","REV_AT_EPOCH":"4824","TIME_SYSTEM":"UTC","OBJECT_NAME":"STARLINK-4549"},{"TIME_SYSTEM":"UTC","OBJECT_NAME":"STARLINK-4498","ARG_OF_PERICENTER":"90.8864","REV_AT_EPOCH":"4828","MEAN_MOTION_DOT":"0.00004875","TLE_LINE2":"2 53434  53.2166 259.5768 0001018  90.8864 269.2245 15.08870273 48284","MEAN_ELEMENT_THEORY":"SGP4","PERIAPSIS":"538.949","MEAN_ANOMALY":"269.2245","ECCENTRICITY":"0.00010180","APOAPSIS":"540.357","LAUNCH_DATE":"2022-08-10","GP_ID":"234094941","REF_FRAME":"TEME","FILE":"3934949","NORAD_CAT_ID":"53434","RCS_SIZE":"LARGE","ELEMENT_SET_NO":"999","CENTER_NAME":"EARTH","MEAN_MOTION_DDOT":"0.0000000000000","SITE":"AFETR","SEMIMAJOR_AXIS":"6917.788","TLE_LINE1":"1 53434U 22097AY  23167.68332123  .00004875  00000-0  32392-3 0  9992","DECAY_DATE":null,"MEAN_MOTION":"15.08870273","EPOCH":"2023-06-16T16:23:58.954272","EPHEMERIS_TYPE":"0","BSTAR":"0.00032392000000","PERIOD":"95.436","OBJECT_TYPE":"PAYLOAD","INCLINATION":"53.2166","CLASSIFICATION_TYPE":"U","COUNTRY_CODE":"US","OBJECT_ID":"2022-097AY","RA_OF_ASC_NODE":"259.5768"},{"MEAN_MOTION_DOT":"0.00002673","TLE_LINE2":"2 53435  53.2168 259.9180 0001157  99.4270 260.6853 15.08853388 48243","ARG_OF_PERICENTER":"99.4270","REV_AT_EPOCH":"4824","TIME_SYSTEM":"UTC","OBJECT_NAME":"STARLINK-4542","REF_FRAME":"TEME","GP_ID":"234095191","NORAD_CAT_ID":"53435","FILE":"3934949","RCS_SIZE":"LARGE","PERIAPSIS":"538.904","MEAN_ELEMENT_THEORY":"SGP4","MEAN_ANOMALY":"260.6853","ECCENTRICITY":"0.00011570","LAUNCH_DATE":"2022-08-10","APOAPSIS":"540.505","EPOCH":"2023-06-16T14:59:14.067168","EPHEMERIS_TYPE":"0","MEAN_MOTION":"15.08853388","OBJECT_TYPE":"PAYLOAD","INCLINATION":"53.2168","BSTAR":"0.00018591000000","PERIOD":"95.437","SEMIMAJOR_AXIS":"6917.839","TLE_LINE1":"1 53435U 22097AZ  23167.62446837  .00002673  00000-0  18591-3 0  9994","ELEMENT_SET_NO":"999","CENTER_NAME":"EARTH","MEAN_MOTION_DDOT":"0.0000000000000","SITE":"AFETR","DECAY_DATE":null,"OBJECT_ID":"2022-097AZ","RA_OF_ASC_NODE":"259.9180","COUNTRY_CODE":"US","CLASSIFICATION_TYPE":"U"},{"RA_OF_ASC_NODE":"259.5547","OBJECT_ID":"2022-097BA","COUNTRY_CODE":"US","CLASSIFICATION_TYPE":"U","OBJECT_TYPE":"PAYLOAD","INCLINATION":"53.2165","BSTAR":"0.00004448100000","PERIOD":"95.436","EPOCH":"2023-06-16T16:18:41.410944","EPHEMERIS_TYPE":"0","MEAN_MOTION":"15.08869026","DECAY_DATE":null,"TLE_LINE1":"1 53436U 22097BA  23167.67964596  .00000421  00000-0  44481-4 0  9994","SEMIMAJOR_AXIS":"6917.792","ELEMENT_SET_NO":"999","CENTER_NAME":"EARTH","MEAN_MOTION_DDOT":"0.0000000000000","SITE":"AFETR","NORAD_CAT_ID":"53436","FILE":"3934949","RCS_SIZE":"LARGE","REF_FRAME":"TEME","GP_ID":"234096439","LAUNCH_DATE":"2022-08-10","APOAPSIS":"540.409","PERIAPSIS":"538.905","MEAN_ELEMENT_THEORY":"SGP4","MEAN_ANOMALY":"261.3111","ECCENTRICITY":"0.00010870","TLE_LINE2":"2 53436  53.2165 259.5547 0001087  98.8005 261.3111 15.08869026 48279","MEAN_MOTION_DOT":"0.00000421","ARG_OF_PERICENTER":"98.8005","REV_AT_EPOCH":"4827","TIME_SYSTEM":"UTC","OBJECT_NAME":"STARLINK-4527"},{"MEAN_MOTION_DDOT":"0.0000000000000","SITE":"AFETR","ELEMENT_SET_NO":"999","CENTER_NAME":"EARTH","TLE_LINE1":"1 53438U 22097BC  23167.54348971  .00002583  00000-0  18021-3 0  9996","SEMIMAJOR_AXIS":"6917.834","DECAY_DATE":null,"MEAN_MOTION":"15.08855259","EPHEMERIS_TYPE":"0","EPOCH":"2023-06-16T13:02:37.510944","PERIOD":"95.437","BSTAR":"0.00018021000000","INCLINATION":"53.2163","OBJECT_TYPE":"PAYLOAD","CLASSIFICATION_TYPE":"U","COUNTRY_CODE":"US","OBJECT_ID":"2022-097BC","RA_OF_ASC_NODE":"260.1276","OBJECT_NAME":"STARLINK-4526","TIME_SYSTEM":"UTC","REV_AT_EPOCH":"4826","ARG_OF_PERICENTER":"80.7759","MEAN_MOTION_DOT":"0.00002583","TLE_LINE2":"2 53438  53.2163 260.1276 0001085  80.7759 279.3356 15.08855259 48262","ECCENTRICITY":"0.00010850","PERIAPSIS":"538.948","MEAN_ANOMALY":"279.3356","MEAN_ELEMENT_THEORY":"SGP4","APOAPSIS":"540.449","LAUNCH_DATE":"2022-08-10","GP_ID":"234064047","REF_FRAME":"TEME","RCS_SIZE":"LARGE","FILE":"3934686","NORAD_CAT_ID":"53438"},{"RA_OF_ASC_NODE":"260.1032","OBJECT_ID":"2022-097BD","CLASSIFICATION_TYPE":"U","COUNTRY_CODE":"US","PERIOD":"95.447","BSTAR":"-0.00122570000000","INCLINATION":"53.2161","OBJECT_TYPE":"PAYLOAD","MEAN_MOTION":"15.08687898","EPHEMERIS_TYPE":"0","EPOCH":"2023-06-16T12:57:32.360832","DECAY_DATE":null,"MEAN_MOTION_DDOT":"0.0000000000000","SITE":"AFETR","ELEMENT_SET_NO":"999","CENTER_NAME":"EARTH","SEMIMAJOR_AXIS":"6918.345","TLE_LINE1":"1 53439U 22097BD  23167.53995788 -.00019660  00000-0 -12257-2 0  9990","FILE":"3934949","NORAD_CAT_ID":"53439","RCS_SIZE":"LARGE","REF_FRAME":"TEME","GP_ID":"234095441","APOAPSIS":"540.762","LAUNCH_DATE":"2022-08-10","ECCENTRICITY":"0.00007970","PERIAPSIS":"539.659","MEAN_ELEMENT_THEORY":"SGP4","MEAN_ANOMALY":"243.6352","TLE_LINE2":"2 53439  53.2161 260.1032 0000797 116.4722 243.6352 15.08687898 48269","MEAN_MOTION_DOT":"-0.00019660","OBJECT_NAME":"STARLINK-4519","TIME_SYSTEM":"UTC","REV_AT_EPOCH":"4826","ARG_OF_PERICENTER":"116.4722"},{"TLE_LINE2":"2 53465  97.6557 288.8995 0001431 101.3564 258.7821 15.01265523 46421","MEAN_MOTION_DOT":"0.00001657","OBJECT_NAME":"STARLINK-4415","TIME_SYSTEM":"UTC","REV_AT_EPOCH":"4642","ARG_OF_PERICENTER":"101.3564","FILE":"3934949","RCS_SIZE":"LARGE","NORAD_CAT_ID":"53465","REF_FRAME":"TEME","GP_ID":"234096182","APOAPSIS":"563.988","LAUNCH_DATE":"2022-08-12","ECCENTRICITY":"0.00014310","MEAN_ELEMENT_THEORY":"SGP4","PERIAPSIS":"562.002","MEAN_ANOMALY":"258.7821","PERIOD":"95.919","BSTAR":"0.00013354000000","INCLINATION":"97.6557","OBJECT_TYPE":"PAYLOAD","MEAN_MOTION":"15.01265523","EPHEMERIS_TYPE":"0","EPOCH":"2023-06-16T19:23:43.652832","DECAY_DATE":null,"SITE":"AFWTR","MEAN_MOTION_DDOT":"0.0000000000000","ELEMENT_SET_NO":"999","CENTER_NAME":"EARTH","TLE_LINE1":"1 53465U 22099A   23167.80814413  .00001657  00000-0  13354-3 0  9991","SEMIMAJOR_AXIS":"6941.130","RA_OF_ASC_NODE":"288.8995","OBJECT_ID":"2022-099A","CLASSIFICATION_TYPE":"U","COUNTRY_CODE":"US"},{"TLE_LINE2":"2 53466  97.6561 288.7021 0002686 102.3020 257.8505 15.01272738 46387","MEAN_MOTION_DOT":"0.00001425","REV_AT_EPOCH":"4638","ARG_OF_PERICENTER":"102.3020","OBJECT_NAME":"STARLINK-4398","TIME_SYSTEM":"UTC","FILE":"3934949","NORAD_CAT_ID":"53466","RCS_SIZE":"LARGE","GP_ID":"234094944","REF_FRAME":"TEME","LAUNCH_DATE":"2022-08-12","APOAPSIS":"564.837","ECCENTRICITY":"0.00026860","PERIAPSIS":"561.108","MEAN_ELEMENT_THEORY":"SGP4","MEAN_ANOMALY":"257.8505","INCLINATION":"97.6561","OBJECT_TYPE":"PAYLOAD","PERIOD":"95.919","BSTAR":"0.00011546000000","EPHEMERIS_TYPE":"0","EPOCH":"2023-06-16T14:33:07.131456","MEAN_MOTION":"15.01272738","DECAY_DATE":null,"SEMIMAJOR_AXIS":"6941.108","TLE_LINE1":"1 53466U 22099B   23167.60633254  .00001425  00000-0  11546-3 0  9996","MEAN_MOTION_DDOT":"0.0000000000000","SITE":"AFWTR","CENTER_NAME":"EARTH","ELEMENT_SET_NO":"999","RA_OF_ASC_NODE":"288.7021","OBJECT_ID":"2022-099B","COUNTRY_CODE":"US","CLASSIFICATION_TYPE":"U"},{"OBJECT_ID":"2022-099C","RA_OF_ASC_NODE":"289.1143","CLASSIFICATION_TYPE":"U","COUNTRY_CODE":"US","MEAN_MOTION":"15.00456096","EPOCH":"2023-06-16T18:49:51.097152","EPHEMERIS_TYPE":"0","BSTAR":"0.00012456000000","PERIOD":"95.971","OBJECT_TYPE":"PAYLOAD","INCLINATION":"97.6546","ELEMENT_SET_NO":"999","CENTER_NAME":"EARTH","SITE":"AFWTR","MEAN_MOTION_DDOT":"0.0000000000000","SEMIMAJOR_AXIS":"6943.626","TLE_LINE1":"1 53467U 22099C   23167.78461918  .00001508  00000-0  12456-3 0  9995","DECAY_DATE":null,"GP_ID":"234095194","REF_FRAME":"TEME","FILE":"3934949","NORAD_CAT_ID":"53467","RCS_SIZE":"LARGE","MEAN_ANOMALY":"147.3301","PERIAPSIS":"562.488","MEAN_ELEMENT_THEORY":"SGP4","ECCENTRICITY":"0.00043250","APOAPSIS":"568.494","LAUNCH_DATE":"2022-08-12","MEAN_MOTION_DOT":"0.00001508","TLE_LINE2":"2 53467  97.6546 289.1143 0004325 212.7655 147.3301 15.00456096 46425","TIME_SYSTEM":"UTC","OBJECT_NAME":"STARLINK-4394","ARG_OF_PERICENTER":"212.7655","REV_AT_EPOCH":"4642"},{"LAUNCH_DATE":"2022-08-12","APOAPSIS":"563.742","MEAN_ANOMALY":"262.2918","PERIAPSIS":"562.247","MEAN_ELEMENT_THEORY":"SGP4","ECCENTRICITY":"0.00010770","FILE":"3934949","RCS_SIZE":"LARGE","NORAD_CAT_ID":"53468","REF_FRAME":"TEME","GP_ID":"234096442","ARG_OF_PERICENTER":"97.8428","REV_AT_EPOCH":"4641","TIME_SYSTEM":"UTC","OBJECT_NAME":"STARLINK-4400","TLE_LINE2":"2 53468  97.6553 288.8898 0001077  97.8428 262.2918 15.01265582 46417","MEAN_MOTION_DOT":"0.00001669","COUNTRY_CODE":"US","CLASSIFICATION_TYPE":"U","RA_OF_ASC_NODE":"288.8898","OBJECT_ID":"2022-099D","DECAY_DATE":null,"TLE_LINE1":"1 53468U 22099D   23167.80468705  .00001669  00000-0  13449-3 0  9991","SEMIMAJOR_AXIS":"6941.130","ELEMENT_SET_NO":"999","CENTER_NAME":"EARTH","SITE":"AFWTR","MEAN_MOTION_DDOT":"0.0000000000000","OBJECT_TYPE":"PAYLOAD","INCLINATION":"97.6553","BSTAR":"0.00013449000000","PERIOD":"95.919","EPHEMERIS_TYPE":"0","EPOCH":"2023-06-16T19:18:44.961120","MEAN_MOTION":"15.01265582"}];
